[{"OBJECT_NAME":"HISAKI (SPRINT-A)","OBJECT_ID":"2013-049A","EPOCH":"2026-03-09T22:09:18.719712","MEAN_MOTION":13.55530561,"ECCENTRICITY":0.01366264,"INCLINATION":29.7223,"RA_OF_ASC_NODE":4.6706,"ARG_OF_PERICENTER":291.9905,"MEAN_ANOMALY":66.62,"EPHEMERIS_TYPE":0,"CLASSIFICATION_TYPE":"U","NORAD_CAT_ID":39253,"ELEMENT_SET_NO":999,"REV_AT_EPOCH":61794,"BSTAR":6.2697176e-5,"MEAN_MOTION_DOT":1.12e-6,"MEAN_MOTION_DDOT":0},{"OBJECT_NAME":"THOR AGENA B DEB","OBJECT_ID":"1962-049C","EPOCH":"2026-03-09T23:39:19.084320","MEAN_MOTION":13.70056962,"ECCENTRICITY":0.0015416,"INCLINATION":80.5114,"RA_OF_ASC_NODE":63.3437,"ARG_OF_PERICENTER":351.8027,"MEAN_ANOMALY":37.3698,"EPHEMERIS_TYPE":0,"CLASSIFICATION_TYPE":"U","NORAD_CAT_ID":510,"ELEMENT_SET_NO":999,"REV_AT_EPOCH":16908,"BSTAR":8.2122072e-5,"MEAN_MOTION_DOT":8.1e-7,"MEAN_MOTION_DDOT":0}]
